EUTELSAT 8 WEST B       
1 40875U 15039B   25352.16086340 -.00000040  00000+0  00000+0 0  9990
2 40875   0.0637 352.5135 0004306 275.7769 228.6611  1.00271882 37849
EUTELSAT 9B             
1 41310U 16005A   25352.19906101  .00000087  00000+0  00000+0 0  9998
2 41310   0.0577  70.1501 0004464 203.8605 253.7054  1.00272051 36302
EUTELSAT 65 WEST A      
1 41382U 16014A   25352.11298148 -.00000251  00000+0  00000+0 0  9998
2 41382   0.0559 326.8482 0002313 310.1608 145.4298  1.00269947 35728
EUTELSAT 117 WEST B     
1 41589U 16038B   25351.88876814  .00000013  00000+0  00000+0 0  9993
2 41589   0.0113 157.4202 0000360  73.0441  59.2611  1.00271876 34848
EUTELSAT 172B           
1 42741U 17029B   25352.30167144  .00000020  00000+0  00000+0 0  9990
2 42741   0.0461 142.9449 0000211 302.2393 282.5766  1.00272338 31916
EUTELSAT 7C             
1 44334U 19034B   25352.19906101  .00000073  00000+0  00000+0 0  9997
2 44334   0.0728 178.2218 0003025  71.1814 276.3116  1.00271297  5020
EUTELSAT 5 WEST B       
1 44624U 19067A   25352.16086340 -.00000017  00000+0  00000+0 0  9995
2 44624   0.0701 330.5197 0003010 296.7248 232.7035  1.00271226 22625
EUTELSAT KONNECT        
1 45027U 20005B   25352.19906101  .00000075  00000+0  00000+0 0  9999
2 45027   0.0722  95.7515 0001284 189.5961 240.5809  1.00271838 22526
